EUTELSAT 8 WEST B       
1 40875U 15039B   25223.25330309 -.00000064  00000+0  00000+0 0  9990
2 40875   0.0658 355.5988 0003621 144.6188 262.9240  1.00271906 36541
EUTELSAT 9B             
1 41310U 16005A   25223.25668311  .00000062  00000+0  00000+0 0  9993
2 41310   0.0247  62.7152 0001482  97.7252 260.9158  1.00270575 35000
EUTELSAT 65 WEST A      
1 41382U 16014A   25223.17060014 -.00000275  00000+0  00000+0 0  9996
2 41382   0.0534  25.8654 0002210 115.8002 174.4301  1.00269712 34425
EUTELSAT 117 WEST B     
1 41589U 16038B   25223.23172300 -.00000010  00000+0  00000+0 0  9997
2 41589   0.0172 224.8894 0000140 149.3410 272.1263  1.00270426 33554
EUTELSAT 172B           
1 42741U 17029B   25222.86071328 -.00000005  00000+0  00000+0 0  9999
2 42741   0.0227 176.0946 0000444 244.5401  20.8017  1.00271456 30610
EUTELSAT 7C             
1 44334U 19034B   25223.25624978  .00000049  00000+0  00000+0 0  9993
2 44334   0.0749 190.1393 0003398 297.2229 291.8640  1.00271287  3722
EUTELSAT 5 WEST B       
1 44624U 19067A   25223.25390977 -.00000042  00000+0  00000+0 0  9994
2 44624   0.1002 304.8030 0003195 193.9504 267.5978  1.00267652 21323
EUTELSAT KONNECT        
1 45027U 20005B   25223.04185296  .00000051  00000+0  00000+0 0  9998
2 45027   0.0589  98.1286 0001792  81.9586 161.9263  1.00273276 21214
